[
    {
        "CCSDS_OMM_VERS": "3.0",
        "COMMENT": "GENERATED VIA SPACE-TRACK.ORG API",
        "CREATION_DATE": "2025-04-14T03:05:54",
        "ORIGINATOR": "18 SPCS",
        "OBJECT_NAME": "NAVSTAR 79 (USA 304)",
        "OBJECT_ID": "2020-041A",
        "CENTER_NAME": "EARTH",
        "REF_FRAME": "TEME",
        "TIME_SYSTEM": "UTC",
        "MEAN_ELEMENT_THEORY": "SGP4",
        "EPOCH": "2025-04-13T16:54:56.213856",
        "MEAN_MOTION": "2.00567982",
        "ECCENTRICITY": "0.00516490",
        "INCLINATION": "56.3696",
        "RA_OF_ASC_NODE": "45.6559",
        "ARG_OF_PERICENTER": "199.7337",
        "MEAN_ANOMALY": "341.1839",
        "EPHEMERIS_TYPE": "0",
        "CLASSIFICATION_TYPE": "U",
        "NORAD_CAT_ID": "45854",
        "ELEMENT_SET_NO": "999",
        "REV_AT_EPOCH": "3542",
        "BSTAR": "0.00000000000000",
        "MEAN_MOTION_DOT": "-0.00000074",
        "MEAN_MOTION_DDOT": "0.0000000000000",
        "SEMIMAJOR_AXIS": "26559.961",
        "PERIOD": "717.961",
        "APOAPSIS": "20319.006",
        "PERIAPSIS": "20044.647",
        "OBJECT_TYPE": "PAYLOAD",
        "RCS_SIZE": "LARGE",
        "COUNTRY_CODE": "US",
        "LAUNCH_DATE": "2020-06-30",
        "SITE": "AFETR",
        "DECAY_DATE": null,
        "FILE": "4701263",
        "GP_ID": "285540579",
        "TLE_LINE0": "0 NAVSTAR 79 (USA 304)",
        "TLE_LINE1": "1 45854U 20041A   25103.70481729 -.00000074  00000-0  00000-0 0  9994",
        "TLE_LINE2": "2 45854  56.3696  45.6559 0051649 199.7337 341.1839  2.00567982 35423"
    }
]